{
  "links" : {
    "next" : "https://api.nasa.gov/neo/rest/v1/feed?start_date=2012-09-16&end_date=2012-09-16&detailed=true&api_key=t0TVs3DtDT2H8Oy2Zy8m2eVrNsAVKAexjcZXUckd",
    "prev" : "https://api.nasa.gov/neo/rest/v1/feed?start_date=2012-09-14&end_date=2012-09-14&detailed=true&api_key=t0TVs3DtDT2H8Oy2Zy8m2eVrNsAVKAexjcZXUckd",
    "self" : "https://api.nasa.gov/neo/rest/v1/feed?start_date=2012-09-15&end_date=2012-09-15&detailed=true&api_key=t0TVs3DtDT2H8Oy2Zy8m2eVrNsAVKAexjcZXUckd"
  },
  "element_count" : 6,
  "near_earth_objects" : {
    "2012-09-15" : [ {
      "links" : {
        "self" : "https://api.nasa.gov/neo/rest/v1/neo/3608670?api_key=t0TVs3DtDT2H8Oy2Zy8m2eVrNsAVKAexjcZXUckd"
      },
      "neo_reference_id" : "3608670",
      "name" : "(2012 RW16)",
      "nasa_jpl_url" : "http://ssd.jpl.nasa.gov/sbdb.cgi?sstr=3608670",
      "absolute_magnitude_h" : 25.1,
      "estimated_diameter" : {
        "kilometers" : {
          "estimated_diameter_min" : 0.0253837029,
          "estimated_diameter_max" : 0.0567596853
        },
        "meters" : {
          "estimated_diameter_min" : 25.3837029364,
          "estimated_diameter_max" : 56.7596852866
        },
        "miles" : {
          "estimated_diameter_min" : 0.0157726969,
          "estimated_diameter_max" : 0.0352688224
        },
        "feet" : {
          "estimated_diameter_min" : 83.279867942,
          "estimated_diameter_max" : 186.2194458756
        }
      },
      "is_potentially_hazardous_asteroid" : false,
      "close_approach_data" : [ {
        "close_approach_date" : "2012-09-15",
        "epoch_date_close_approach" : 1347692400000,
        "relative_velocity" : {
          "kilometers_per_second" : "7.4035087877",
          "kilometers_per_hour" : "26652.6316355531",
          "miles_per_hour" : "16560.9088071024"
        },
        "miss_distance" : {
          "astronomical" : "0.0545999182",
          "lunar" : "21.2393684387",
          "kilometers" : "8168031.5",
          "miles" : "5075379.5"
        },
        "orbiting_body" : "Earth"
      } ],
      "orbital_data" : {
        "orbit_id" : "7",
        "orbit_determination_date" : "2017-04-06 08:48:58",
        "orbit_uncertainty" : "7",
        "minimum_orbit_intersection" : ".0499201",
        "jupiter_tisserand_invariant" : "3.248",
        "epoch_osculation" : "2458000.5",
        "eccentricity" : ".5694216016124318",
        "semi_major_axis" : "2.447173902799824",
        "inclination" : "5.611665933455022",
        "ascending_node_longitude" : ".5663743549220542",
        "orbital_period" : "1398.284925751983",
        "perihelion_distance" : "1.053700219643402",
        "perihelion_argument" : "357.2963011979391",
        "aphelion_distance" : "3.840647585956245",
        "perihelion_time" : "2457588.086384195778",
        "mean_anomaly" : "106.1792907548331",
        "mean_motion" : ".2574582571619985",
        "equinox" : "J2000"
      }
    }, {
      "links" : {
        "self" : "https://api.nasa.gov/neo/rest/v1/neo/2456651?api_key=t0TVs3DtDT2H8Oy2Zy8m2eVrNsAVKAexjcZXUckd"
      },
      "neo_reference_id" : "2456651",
      "name" : "456651 (2007 RT19)",
      "nasa_jpl_url" : "http://ssd.jpl.nasa.gov/sbdb.cgi?sstr=2456651",
      "absolute_magnitude_h" : 18.3,
      "estimated_diameter" : {
        "kilometers" : {
          "estimated_diameter_min" : 0.5815070396,
          "estimated_diameter_max" : 1.30028927
        },
        "meters" : {
          "estimated_diameter_min" : 581.5070396458,
          "estimated_diameter_max" : 1300.2892700427
        },
        "miles" : {
          "estimated_diameter_min" : 0.3613316107,
          "estimated_diameter_max" : 0.807962044
        },
        "feet" : {
          "estimated_diameter_min" : 1907.8315559515,
          "estimated_diameter_max" : 4266.0410487267
        }
      },
      "is_potentially_hazardous_asteroid" : false,
      "close_approach_data" : [ {
        "close_approach_date" : "2012-09-15",
        "epoch_date_close_approach" : 1347692400000,
        "relative_velocity" : {
          "kilometers_per_second" : "12.2942782814",
          "kilometers_per_hour" : "44259.4018131887",
          "miles_per_hour" : "27501.071087756"
        },
        "miss_distance" : {
          "astronomical" : "0.4212914496",
          "lunar" : "163.8823699951",
          "kilometers" : "63024304",
          "miles" : "39161488"
        },
        "orbiting_body" : "Earth"
      } ],
      "orbital_data" : {
        "orbit_id" : "108",
        "orbit_determination_date" : "2017-09-02 06:20:33",
        "orbit_uncertainty" : "0",
        "minimum_orbit_intersection" : ".382013",
        "jupiter_tisserand_invariant" : "3.804",
        "epoch_osculation" : "2458000.5",
        "eccentricity" : ".3765448382992355",
        "semi_major_axis" : "1.862266765377987",
        "inclination" : "24.38632269450765",
        "ascending_node_longitude" : "197.9657388853056",
        "orbital_period" : "928.2421091329865",
        "perihelion_distance" : "1.161039827338692",
        "perihelion_argument" : "96.55334239099892",
        "aphelion_distance" : "2.563493703417281",
        "perihelion_time" : "2457965.628536424989",
        "mean_anomaly" : "13.52419456463763",
        "mean_motion" : ".387829852209844",
        "equinox" : "J2000"
      }
    }, {
      "links" : {
        "self" : "https://api.nasa.gov/neo/rest/v1/neo/3117426?api_key=t0TVs3DtDT2H8Oy2Zy8m2eVrNsAVKAexjcZXUckd"
      },
      "neo_reference_id" : "3117426",
      "name" : "(2002 EM6)",
      "nasa_jpl_url" : "http://ssd.jpl.nasa.gov/sbdb.cgi?sstr=3117426",
      "absolute_magnitude_h" : 20.1,
      "estimated_diameter" : {
        "kilometers" : {
          "estimated_diameter_min" : 0.2538370294,
          "estimated_diameter_max" : 0.5675968529
        },
        "meters" : {
          "estimated_diameter_min" : 253.8370293645,
          "estimated_diameter_max" : 567.5968528656
        },
        "miles" : {
          "estimated_diameter_min" : 0.1577269688,
          "estimated_diameter_max" : 0.3526882241
        },
        "feet" : {
          "estimated_diameter_min" : 832.7986794202,
          "estimated_diameter_max" : 1862.1944587557
        }
      },
      "is_potentially_hazardous_asteroid" : false,
      "close_approach_data" : [ {
        "close_approach_date" : "2012-09-15",
        "epoch_date_close_approach" : 1347692400000,
        "relative_velocity" : {
          "kilometers_per_second" : "18.5574169046",
          "kilometers_per_hour" : "66806.7008564156",
          "miles_per_hour" : "41511.08587381"
        },
        "miss_distance" : {
          "astronomical" : "0.1833377352",
          "lunar" : "71.3183746338",
          "kilometers" : "27426934",
          "miles" : "17042308"
        },
        "orbiting_body" : "Earth"
      } ],
      "orbital_data" : {
        "orbit_id" : "42",
        "orbit_determination_date" : "2017-03-08 06:18:02",
        "orbit_uncertainty" : "0",
        "minimum_orbit_intersection" : ".0526347",
        "jupiter_tisserand_invariant" : "5.282",
        "epoch_osculation" : "2457800.5",
        "eccentricity" : ".1412162716363994",
        "semi_major_axis" : "1.159605915336979",
        "inclination" : "31.76076418444354",
        "ascending_node_longitude" : "169.5136954523932",
        "orbital_period" : "456.1041880127528",
        "perihelion_distance" : ".9958506914055766",
        "perihelion_argument" : "120.9289431056956",
        "aphelion_distance" : "1.323361139268381",
        "perihelion_time" : "2457959.534027779865",
        "mean_anomaly" : "234.4755003232936",
        "mean_motion" : ".7892933445064843",
        "equinox" : "J2000"
      }
    } ]
  }
}